GLOBALSTAR M035         
1 25851U 99037A   26024.01669704 -.00000097  00000+0 -12571-2 0  9991
2 25851  51.9958 282.4960 0013816 344.2195  27.5903 11.04541552120667
GLOBALSTAR M032         
1 25852U 99037B   26023.87100277 -.00000193  00000+0 -40646-2 0  9991
2 25852  51.9959  92.7901 0013065 177.4538 182.6330 11.19069984159499
GLOBALSTAR M051         
1 25853U 99037C   26023.93669054 -.00000063  00000+0  20839-3 0  9990
2 25853  51.9761 228.3617 0001165  81.3659 278.7284 11.42199901157613
GLOBALSTAR M030         
1 25854U 99037D   26024.26564789 -.00000120  00000+0 -96403-3 0  9992
2 25854  51.9903  19.6103 0003513  78.8169 281.3043 11.55109819175592
GLOBALSTAR M048         
1 25872U 99041A   26024.15242062 -.00000058  00000+0  32969-3 0  9998
2 25872  51.9341 171.4140 0013084 201.9626 328.8605 11.33861886150046
GLOBALSTAR M026         
1 25873U 99041B   26024.30592601 -.00000109  00000+0 -16431-2 0  9996
2 25873  52.0029  37.4709 0001759 275.0501  98.3333 11.06842435172976
GLOBALSTAR M043         
1 25874U 99041C   26023.93756911 -.00000058  00000+0  30060-3 0  9998
2 25874  51.9410 288.3676 0013565 331.1992 134.6880 11.25696132147734
GLOBALSTAR M028         
1 25875U 99041D   26023.98246126 -.00000081  00000+0  12552-3 0  9998
2 25875  51.9610 254.6868 0062890 190.2882 169.6695 12.50594679217803
